      2.10          N: GNSS NAV DATA                        RINEX VERSION / TYPE
fic2rin                                 05/07/2023 00:17:52 PGM / RUN BY / DATE
                                                            END OF HEADER
30 23  5  6  9 59 44.0 -.518716406077D-03  .204636307899D-11  .000000000000D+00
     .000000000000D+00 -.987500000000D+01  .517842998811D-08  .250568547759D+01
    -.523403286934D-06  .644921313506D-02  .107958912849D-04  .515360193443D+04
     .554384000000D+06 -.100582838058D-06 -.382643778649D+00 -.152736902237D-06
     .935743238948D+00  .160750000000D+03 -.259500452609D+01 -.809105131048D-08
    -.636812240072D-09  .100000000000D+01  .226000000000D+04  .000000000000D+00
     .240000000000D+01  .000000000000D+00  .372529029846D-08  .000000000000D+00
     .550410000000D+06  .400000000000D+01
10 23  5  6 11 59 44.0 -.357897952199D-04 -.159161572810D-11  .000000000000D+00
     .100000000000D+02 -.148125000000D+02  .379765818771D-08  .220856135316D+01
    -.718981027603D-06  .848882913124D-02  .110361725092D-04  .515368998909D+04
     .561584000000D+06 -.149011611938D-06 -.248837716715D+01 -.176951289177D-06
     .978557926945D+00  .175312500000D+03 -.242910034539D+01 -.753102798326D-08
     .641812448350D-09  .100000000000D+01  .226000000000D+04  .000000000000D+00
     .240000000000D+01  .000000000000D+00  .232830643654D-08  .100000000000D+02
     .554400000000D+06  .400000000000D+01
13 23  5  6 11 59 44.0  .516040250659D-03  .534328137292D-11  .000000000000D+00
     .100000000000D+02 -.578125000000D+01  .489448958942D-08 -.172153956915D+00
    -.257045030594D-06  .691082666162D-02  .495091080666D-05  .515365619278D+04
     .561584000000D+06  .931322574615D-08 -.130113675428D+01  .800937414169D-07
     .969239182668D+00  .291875000000D+03  .911065329459D+00 -.822962851135D-08
     .357157734196D-10  .100000000000D+01  .226000000000D+04  .000000000000D+00
     .240000000000D+01  .000000000000D+00 -.111758708954D-07  .100000000000D+02
     .554400000000D+06  .400000000000D+01
30 23  5  6 11 59 44.0 -.518701504916D-03  .204636307899D-11  .000000000000D+00
     .100000000000D+01 -.496875000000D+01  .511807033103D-08 -.272726827358D+01
    -.447034835815D-06  .644850300159D-02  .107120722532D-04  .515360323715D+04
     .561584000000D+06  .130385160446D-07 -.382702007178D+00 -.193715095520D-06
     .935738743400D+00  .163000000000D+03 -.259500699111D+01 -.808747973314D-08
    -.607882463602D-09  .100000000000D+01  .226000000000D+04  .000000000000D+00
     .240000000000D+01  .000000000000D+00  .372529029846D-08  .100000000000D+01
     .554400000000D+06  .400000000000D+01
1  23  5  6 12  0  0.0  .187439844012D-03 -.295585778076D-11  .000000000000D+00
     .360000000000D+02 -.148687500000D+03  .347978780427D-08 -.197123443239D+01
    -.766105949879D-05  .128189639654D-01  .797957181931D-05  .515365011597D+04
     .561600000000D+06  .135973095894D-06  .276737712489D+01 -.115483999252D-06
     .990084447208D+00  .237937500000D+03  .957004301379D+00 -.747995442727D-08
    -.260725145963D-09  .100000000000D+01  .226000000000D+04  .000000000000D+00
     .240000000000D+01  .000000000000D+00  .465661287308D-08  .360000000000D+02
     .554400000000D+06  .400000000000D+01
3  23  5  6 12  0  0.0 -.310993753374D-03  .105728759081D-10  .000000000000D+00
     .370000000000D+02 -.106875000000D+02  .371765485525D-08 -.312123354745D+01
    -.556930899620D-06  .474028079771D-02  .117979943752D-04  .515367777634D+04
     .561600000000D+06 -.204890966415D-07 -.248572318359D+01  .707805156708D-07
     .978819038805D+00  .161312500000D+03  .101339336381D+01 -.741530887738D-08
     .726101673621D-09  .100000000000D+01  .226000000000D+04  .000000000000D+00
     .240000000000D+01  .000000000000D+00  .186264514923D-08  .370000000000D+02
     .554400000000D+06  .400000000000D+01
2  23  5  6 12  0  0.0 -.598967541009D-03  .386535248253D-11  .000000000000D+00
     .820000000000D+02 -.136562500000D+03  .404659712844D-08  .200193074735D+01
    -.719539821148D-05  .173484261613D-01  .588968396187D-05  .515952777672D+04
     .561600000000D+06  .296160578728D-06  .266907062893D+01 -.167638063431D-07
     .967527730899D+00  .263718750000D+03 -.129058929340D+01 -.769032033271D-08
    -.416088760338D-09  .100000000000D+01  .226000000000D+04  .000000000000D+00
     .240000000000D+01  .000000000000D+00 -.176951289177D-07  .820000000000D+02
     .554400000000D+06  .400000000000D+01
5  23  5  6 12  0  0.0 -.126140192151D-03 -.147792889038D-11  .000000000000D+00
     .370000000000D+02 -.229375000000D+02  .409445626482D-08  .635626921853D+00
    -.107288360596D-05  .588220357895D-02  .114552676678D-04  .515366257477D+04
     .561600000000D+06 -.856816768646D-07 -.253200538828D+01  .000000000000D+00
     .965874591045D+00  .164281250000D+03  .113846353348D+01 -.774960851659D-08
     .569666586043D-09  .100000000000D+01  .226000000000D+04  .000000000000D+00
     .240000000000D+01  .000000000000D+00 -.111758708954D-07  .370000000000D+02
     .554400000000D+06  .400000000000D+01
7  23  5  6 12  0  0.0  .184861477464D-03 -.909494701773D-11  .000000000000D+00
     .103000000000D+03 -.734375000000D+01  .473519723997D-08 -.259850234859D+01
    -.704079866409D-06  .172299280530D-01  .104606151581D-04  .515375398636D+04
     .561600000000D+06  .363215804100D-06 -.389135536143D+00 -.203028321266D-06
     .950606618296D+00  .168781250000D+03 -.219974842890D+01 -.778746723641D-08
    -.485020203038D-09  .100000000000D+01  .226000000000D+04  .000000000000D+00
     .240000000000D+01  .000000000000D+00 -.111758708954D-07  .103000000000D+03
     .554400000000D+06  .400000000000D+01
6  23  5  6 12  0  0.0  .588117167354D-03  .113686837722D-12  .000000000000D+00
     .840000000000D+02 -.155093750000D+03  .366800993019D-08 -.179253083616D+01
    -.800378620625D-05  .280398107134D-02  .801868736744D-05  .515366419029D+04
     .561600000000D+06  .260770320892D-07  .275905598980D+01  .409781932831D-07
     .989296772616D+00  .241437500000D+03 -.747404791107D+00 -.778818155188D-08
    -.311441544219D-09  .100000000000D+01  .226000000000D+04  .000000000000D+00
     .340000000000D+01  .000000000000D+00  .372529029846D-08  .840000000000D+02
     .554400000000D+06  .400000000000D+01
4  23  5  6 12  0  0.0  .345045700669D-04  .954969436862D-11  .000000000000D+00
     .114000000000D+03  .750000000000D+00  .497449292188D-08 -.253331339650D+00
     .156462192535D-06  .237054866739D-02  .465288758278D-05  .515366374779D+04
     .561600000000D+06  .279396772385D-07 -.140460280284D+01  .111758708954D-07
     .962199642814D+00  .289093750000D+03 -.297857165767D+01 -.822962851135D-08
     .171078554680D-09  .100000000000D+01  .226000000000D+04  .000000000000D+00
     .240000000000D+01  .000000000000D+00 -.465661287308D-08  .626000000000D+03
     .554400000000D+06  .400000000000D+01
20 23  5  6 12  0  0.0  .435083173215D-03 -.204636307899D-11  .000000000000D+00
     .600000000000D+01 -.436562500000D+02  .439268297288D-08 -.116813802212D+01
    -.225938856602D-05  .420493725687D-02  .118575990200D-04  .515381554222D+04
     .561600000000D+06  .949949026108D-07 -.265400234450D+01 -.894069671631D-07
     .948446448590D+00  .144625000000D+03 -.288009418755D+01 -.783461205733D-08
     .560023327219D-09  .100000000000D+01  .226000000000D+04  .000000000000D+00
     .240000000000D+01  .000000000000D+00 -.838190317154D-08  .600000000000D+01
     .554400000000D+06  .400000000000D+01
29 23  5  6 12  0  0.0 -.598390586674D-03 -.147792889038D-11  .000000000000D+00
     .390000000000D+02  .734375000000D+01  .445875715370D-08  .355397938836D+00
     .139698386192D-06  .248261296656D-02  .443309545517D-06  .515377185059D+04
     .561600000000D+06  .298023223877D-07  .177863030707D+01  .372529029846D-08
     .976447619340D+00  .379281250000D+03  .236698127861D+01 -.837677749783D-08
    -.154292141173D-09  .100000000000D+01  .226000000000D+04  .000000000000D+00
     .240000000000D+01  .000000000000D+00 -.102445483208D-07  .390000000000D+02
     .554400000000D+06  .400000000000D+01
32 23  5  6 12  0  0.0 -.469746999443D-03 -.943600753089D-11  .000000000000D+00
     .200000000000D+02  .759375000000D+01  .508699760815D-08  .875194284109D+00
     .245869159698D-06  .688812474255D-02  .474229454994D-05  .515372980118D+04
     .561600000000D+06 -.502914190292D-07 -.144807217448D+01  .782310962677D-07
     .959106524899D+00  .285343750000D+03 -.220870204784D+01 -.839213528041D-08
     .151792037033D-09  .100000000000D+01  .226000000000D+04  .000000000000D+00
     .240000000000D+01  .000000000000D+00  .465661287308D-09  .200000000000D+02
     .554400000000D+06  .400000000000D+01
16 23  5  6 12  0  0.0 -.503319315612D-03  .318323145621D-11  .000000000000D+00
     .240000000000D+02  .131718750000D+03  .441589822560D-08  .111277682495D+01
     .719353556633D-05  .133421494393D-01  .839121639729D-05  .515360054207D+04
     .561600000000D+06 -.128522515297D-06  .743297101468D+00  .173225998878D-06
     .965614601244D+00  .223000000000D+03  .786776793989D+00 -.818391232137D-08
     .142863093678D-10  .100000000000D+01  .226000000000D+04  .000000000000D+00
     .240000000000D+01  .000000000000D+00 -.102445483208D-07  .240000000000D+02
     .554400000000D+06  .400000000000D+01
